H1 CPF 01  gfz 2022 07 28 00  7091 tandemx   
H2 1003001  6202 36605    2022 07 28 00 59 42 2022 08 02 00 00 42   120 1 1  0 0 0
H9
10 0 59788   3582.000000  0    1892380.720   6400266.021  -1718284.439
10 0 59788   3702.000000  0    1982240.157   6077877.232  -2576707.434
10 0 59788   3822.000000  0    2030962.926   5648314.054  -3389892.888
10 0 59788   3942.000000  0    2035932.755   5119908.742  -4143622.837
10 0 59788   4062.000000  0    1995459.786   4502741.386  -4824754.902
10 0 59788   4182.000000  0    1908834.205   3808436.180  -5421446.441
10 0 59788   4302.000000  0    1776359.425   3049933.606  -5923352.281
10 0 59788   4422.000000  0    1599363.498   2241242.428  -6321794.262
10 0 59788   4542.000000  0    1380189.249   1397177.743  -6609899.092
10 0 59788   4662.000000  0    1122164.686    533090.980  -6782706.167
10 0 59788   4782.000000  0     829552.513   -335405.854  -6837244.557
10 0 59788   4902.000000  0     507479.996  -1192716.979  -6772577.629
10 0 59788   5022.000000  0     161850.974  -2023535.397  -6589815.776
10 0 59788   5142.000000  0    -200758.686  -2813108.029  -6292100.314
10 0 59788   5262.000000  0    -573222.692  -3547493.977  -5884556.907
10 0 59788   5382.000000  0    -947999.631  -4213808.689  -5374215.523
10 0 59788   5502.000000  0   -1317280.386  -4800451.458  -4769901.016
10 0 59788   5622.000000  0   -1673146.334  -5297313.365  -4082092.186
10 0 59788   5742.000000  0   -2007735.052  -5695960.171  -3322750.023
10 0 59788   5862.000000  0   -2313409.787  -5989785.877  -2505117.456
10 0 59788   5982.000000  0   -2582929.198  -6174133.816  -1643493.320
10 0 59788   6102.000000  0   -2809613.469  -6246382.017   -752982.990
10 0 59788   6222.000000  0   -2987502.475  -6205988.720    150770.421
10 0 59788   6342.000000  0   -3111501.177  -6054495.456   1051867.755
10 0 59788   6462.000000  0   -3177508.628  -5795488.263   1934442.070
10 0 59788   6582.000000  0   -3182527.076  -5434517.043   2782947.427
10 0 59788   6702.000000  0   -3124748.111  -4978975.422   3582440.764
10 0 59788   6822.000000  0   -3003613.757  -4437945.023   4318851.220
10 0 59788   6942.000000  0   -2819851.653  -3822007.744   4979231.346
10 0 59788   7062.000000  0   -2575483.834  -3143030.819   5551985.379
10 0 59788   7182.000000  0   -2273807.660  -2413930.491   6027070.298
10 0 59788   7302.000000  0   -1919350.943  -1648421.190   6396167.277
10 0 59788   7422.000000  0   -1517801.765   -860753.627   6652823.152
10 0 59788   7542.000000  0   -1075914.389    -65445.497   6792556.366
10 0 59788   7662.000000  0    -601395.379    722985.577   6812928.502
10 0 59788   7782.000000  0    -102769.418   1490286.136   6713585.205
10 0 59788   7902.000000  0     410773.798   2222724.469   6496262.208
10 0 59788   8022.000000  0     929548.683   2907336.335   6164756.351
10 0 59788   8142.000000  0    1443555.415   3532154.842   5724863.407
10 0 59788   8262.000000  0    1942671.676   4086422.826   5184282.635
10 0 59788   8382.000000  0    2416852.165   4560783.396   4552488.307
10 0 59788   8502.000000  0    2856331.983   4947444.087   3840567.946
10 0 59788   8622.000000  0    3251827.887   5240310.625   3061031.868
10 0 59788   8742.000000  0    3594736.708   5435092.186   2227595.795
10 0 59788   8862.000000  0    3877324.029   5529368.736   1354934.066
10 0 59788   8982.000000  0    4092895.421   5522620.055    458416.642
10 0 59788   9102.000000  0    4235949.682   5416217.629   -446170.348
10 0 59788   9222.000000  0    4302308.465   5213375.649  -1342910.994
10 0 59788   9342.000000  0    4289220.004   4919066.565  -2216047.392
10 0 59788   9462.000000  0    4195433.340   4539901.827  -3050263.565
10 0 59788   9582.000000  0    4021241.227   4083981.279  -3830959.190
10 0 59788   9702.000000  0    3768491.297   3560714.772  -4544505.655
10 0 59788   9822.000000  0    3440567.455   2980622.667  -5178480.898
10 0 59788   9942.000000  0    3042340.445   2355119.167  -5721879.781
10 0 59788  10062.000000  0    2580090.006   1696284.078  -6165295.805
10 0 59788  10182.000000  0    2061400.919   1016627.824  -6501072.752
10 0 59788  10302.000000  0    1495035.743    328855.325  -6723424.243
10 0 59788  10422.000000  0     890787.495   -354367.185  -6828524.145
10 0 59788  10542.000000  0     259311.084  -1020641.163  -6814565.908
10 0 59788  10662.000000  0    -388060.801  -1658054.931  -6681788.250
10 0 59788  10782.000000  0   -1039515.240  -2255390.274  -6432471.963
10 0 59788  10902.000000  0   -1682969.699  -2802316.459  -6070906.030
10 0 59788  11022.000000  0   -2306290.803  -3289567.104  -5603321.039
10 0 59788  11142.000000  0   -2897518.949  -3709097.717  -5037793.307
10 0 59788  11262.000000  0   -3445097.315  -4054222.956  -4384117.695
10 0 59788  11382.000000  0   -3938099.134  -4319728.713  -3653648.109
10 0 59788  11502.000000  0   -4366448.531  -4501957.053  -2859109.384
10 0 59788  11622.000000  0   -4721131.011  -4598862.005  -2014381.401
10 0 59788  11742.000000  0   -4994387.789  -4610033.748  -1134258.722
10 0 59788  11862.000000  0   -5179888.923  -4536690.370   -234189.933
10 0 59788  11982.000000  0   -5272880.825  -4381637.137    669998.384
10 0 59788  12102.000000  0   -5270303.391  -4149193.134   1562388.429
10 0 59788  12222.000000  0   -5170872.527  -3845086.010   2427261.243
10 0 59788  12342.000000  0   -4975126.432  -3476318.179   3249382.364
10 0 59788  12462.000000  0   -4685434.911  -3051008.672   4014277.237
10 0 59788  12582.000000  0   -4305971.317  -2578214.120   4708491.620
10 0 59788  12702.000000  0   -3842647.447  -2067733.464   5319829.292
10 0 59788  12822.000000  0   -3303015.944  -1529903.214   5837563.921
10 0 59788  12942.000000  0   -2696141.730   -975386.792   6252624.677
10 0 59788  13062.000000  0   -2032443.205   -414960.728   6557751.119
10 0 59788  13182.000000  0   -1323507.490    140696.248   6747613.140
10 0 59788  13302.000000  0    -581885.628    681205.021   6818897.239
10 0 59788  13422.000000  0     179129.752   1196678.866   6770360.897
10 0 59788  13542.000000  0     945742.130   1677903.959   6602853.091
10 0 59788  13662.000000  0    1703900.725   2116504.387   6319300.020
10 0 59788  13782.000000  0    2439557.123   2505087.880   5924656.727
10 0 59788  13902.000000  0    3138925.885   2837371.692   5425826.669
10 0 59788  14022.000000  0    3788746.081   3108286.802   4831547.141
10 0 59788  14142.000000  0    4376535.910   3314057.667   4152240.786
10 0 59788  14262.000000  0    4890837.585   3452255.926   3399839.145
10 0 59788  14382.000000  0    5321450.361   3521828.244   2587574.333
10 0 59788  14502.000000  0    5659638.707   3523093.549   1729744.024
10 0 59788  14622.000000  0    5898315.016   3457713.321    841456.071
10 0 59788  14742.000000  0    6032191.440   3328633.702    -61645.073
10 0 59788  14862.000000  0    6057895.436   3140000.115   -963662.762
10 0 59788  14982.000000  0    5974047.203   2897047.148  -1848736.586
10 0 59788  15102.000000  0    5781296.043   2605967.843  -2701328.346
10 0 59788  15222.000000  0    5482316.776   2273765.472  -3506500.504
10 0 59788  15342.000000  0    5081766.345   1908090.435  -4250180.520
10 0 59788  15462.000000  0    4586201.049   1517067.149  -4919406.872
10 0 59788  15582.000000  0    4003957.159   1109115.909  -5502548.848
10 0 59788  15702.000000  0    3345001.407    692774.711  -5989499.900
10 0 59788  15822.000000  0    2620752.470    276523.878  -6371842.772
10 0 59788  15942.000000  0    1843878.107   -131382.617  -6642982.965
10 0 59788  16062.000000  0    1028073.638   -523076.295  -6798251.784
10 0 59788  16182.000000  0     187822.369   -891222.029  -6834979.314
10 0 59788  16302.000000  0    -661857.284  -1229151.200  -6752533.591
10 0 59788  16422.000000  0   -1505672.966  -1530978.869  -6552330.436
10 0 59788  16542.000000  0   -2328327.533  -1791704.270  -6237812.363
10 0 59788  16662.000000  0   -3114790.168  -2007292.416  -5814394.801
10 0 59788  16782.000000  0   -3850566.188  -2174736.512  -5289383.565
10 0 59788  16902.000000  0   -4521965.037  -2292100.581  -4671861.095
10 0 59788  17022.000000  0   -5116358.649  -2358540.126  -3972540.243
10 0 59788  17142.000000  0   -5622425.616  -2374300.888  -3203588.655
10 0 59788  17262.000000  0   -6030376.441  -2340694.931  -2378424.078
10 0 59788  17382.000000  0   -6332153.334  -2260054.088  -1511483.814
10 0 59788  17502.000000  0   -6521600.082  -2135661.808   -617972.067
10 0 59788  17622.000000  0   -6594596.397  -1971664.377    286410.584
10 0 59788  17742.000000  0   -6549153.264  -1772963.416   1185749.897
10 0 59788  17862.000000  0   -6385465.525  -1545092.080   2064207.098
10 0 59788  17982.000000  0   -6105919.512  -1294078.862   2906307.232
10 0 59788  18102.000000  0   -5715056.792  -1026301.906   3697219.679
10 0 59788  18222.000000  0   -5219494.338   -748337.335   4423026.716
10 0 59788  18342.000000  0   -4627801.806   -466806.268   5070970.774
10 0 59788  18462.000000  0   -3950344.541   -188224.460   5629677.284
10 0 59788  18582.000000  0   -3199093.390     81142.772   6089352.515
10 0 59788  18702.000000  0   -2387404.229    335416.764   6441950.557
10 0 59788  18822.000000  0   -1529774.113    569229.030   6681308.119
10 0 59788  18942.000000  0    -641578.174    777831.148   6803246.404
10 0 59788  19062.000000  0     261207.151    957189.165   6805638.640
10 0 59788  19182.000000  0    1162290.713   1104060.459   6688444.492
10 0 59788  19302.000000  0    2045359.609   1216052.623   6453710.844
10 0 59788  19422.000000  0    2894373.635   1291662.573   6105538.292
10 0 59788  19542.000000  0    3693857.785   1330295.595   5650014.666
10 0 59788  19662.000000  0    4429187.285   1332263.981   5095113.246
10 0 59788  19782.000000  0    5086858.978   1298765.728   4450560.148
10 0 59788  19902.000000  0    5654748.534   1231843.479   3727670.399
10 0 59788  20022.000000  0    6122344.250   1134324.558   2939150.571
99
